[{"OBJECT_NAME":"STARLINK-31211","OBJECT_ID":"2024-038J","EPOCH":"2026-03-09T05:55:56.248320","MEAN_MOTION":15.27571669,"ECCENTRICITY":6.816e-5,"INCLINATION":42.9996,"RA_OF_ASC_NODE":29.2471,"ARG_OF_PERICENTER":253.7027,"MEAN_ANOMALY":106.375,"EPHEMERIS_TYPE":0,"CLASSIFICATION_TYPE":"U","NORAD_CAT_ID":59031,"ELEMENT_SET_NO":999,"REV_AT_EPOCH":11458,"BSTAR":-2.0817575e-5,"MEAN_MOTION_DOT":-8.34e-6,"MEAN_MOTION_DDOT":0},{"OBJECT_NAME":"OKEAN-1","OBJECT_ID":"1988-056A","EPOCH":"2026-03-09T21:19:04.260000","MEAN_MOTION":15.31672069,"ECCENTRICITY":0.00129431,"INCLINATION":82.4671,"RA_OF_ASC_NODE":262.7586,"ARG_OF_PERICENTER":168.0696,"MEAN_ANOMALY":192.0855,"EPHEMERIS_TYPE":0,"CLASSIFICATION_TYPE":"U","NORAD_CAT_ID":19274,"ELEMENT_SET_NO":999,"REV_AT_EPOCH":3511,"BSTAR":0.00038371192,"MEAN_MOTION_DOT":0.00011798,"MEAN_MOTION_DDOT":0}]
